ONEWEB-0693             
1 61601U 24188H   24305.87165798 -.00307476  00000+0 -33215-1 0  9995
2 61601  86.5082 165.5254 0001565 184.1688 175.9527 14.90208712  4695
ONEWEB-0695             
1 61602U 24188J   24305.87188412 -.00183661  00000+0 -19438-1 0  9993
2 61602  86.5130 165.5332 0002262 146.0430 214.0942 14.90318241  4699
ONEWEB-0697             
1 61603U 24188K   24305.73796312 -.00349205  00000+0 -38089-1 0  9994
2 61603  86.5083 165.5853 0000914  92.6363 267.4969 14.90062710  4674
ONEWEB-0698             
1 61604U 24188L   24305.86555032  .00009909  00000+0  98041-3 0  9999
2 61604  86.5093 165.5226 0005291 162.1533 197.9882 14.91767821  4694
ONEWEB-0699             
1 61605U 24188M   24305.87394104 -.00378076  00000+0 -42141-1 0  9996
2 61605  86.5112 165.5319 0001800 199.6378 160.4780 14.89355040  4699
ONEWEB-0700             
1 61606U 24188N   24305.87132340 -.00251711  00000+0 -26834-1 0  9996
2 61606  86.5083 165.5258 0005106 176.2708 183.8558 14.90403185  4698
ONEWEB-0701             
1 61607U 24188P   24305.86776645 -.00027748  00000+0 -28002-2 0  9999
2 61607  86.5110 165.5289 0004587 169.3442 190.7884 14.91357577  4697
ONEWEB-0702             
1 61608U 24188Q   24305.86577783  .00009980  00000+0  98817-3 0  9990
2 61608  86.5091 165.5220 0005143 161.2710 198.8707 14.91739343  4697
ONEWEB-0704             
1 61609U 24188R   24305.87342526 -.00233168  00000+0 -25200-1 0  9990
2 61609  86.5123 165.5332 0002252 148.6542 211.4819 14.89760464  2833
ONEWEB-0705             
1 61610U 24188S   24305.86745470 -.00073703  00000+0 -74827-2 0  9993
2 61610  86.5111 165.5293 0005108 167.9486 192.1865 14.91352154  4690
ONEWEB-0706             
1 61611U 24188T   24305.86646597 -.00037287  00000+0 -37466-2 0  9999
2 61611  86.5110 165.5292 0004948 162.7012 197.4385 14.91573523  4698
ONEWEB-0707             
1 61612U 24188U   24305.87260683 -.00181963  00000+0 -19334-1 0  9993
2 61612  86.5131 165.5336 0001896 142.0831 218.0529 14.90152010  2736
ONEWEB-0708             
1 61613U 24188V   24305.87043799 -.00033234  00000+0 -33905-2 0  9999
2 61613  86.5097 165.5274 0003645 182.0287 178.0927 14.90949875  4699
2024-189A               
1 61614U 24189A   24305.91908910  .00014647  00000+0  11503-2 0  9996
2 61614  97.6344 330.6739 0008647 223.4725 136.5818 15.00975008  1484
2024-189B               
1 61615U 24189B   24305.91878108  .00009023  00000+0  71208-3 0  9993
2 61615  97.6341 330.6739 0009619 240.9598 119.0662 15.00906451  1450
2024-189C               
1 61616U 24189C   24305.91855002  .00008759  00000+0  69110-3 0  9996
2 61616  97.6333 330.6728 0009218 280.8669  79.1518 15.00929999  1455
2024-190A               
1 61617U 24190A   24305.55033548  .00027390  00000+0  11230-2 0  9993
2 61617  34.9934 331.5007 0005196 353.7545   6.3105 15.23326653  1302
2024-190B               
1 61618U 24190B   24305.08995494  .00036222  00000+0  14726-2 0  9996
2 61618  34.9907 334.3740 0008217 353.6400   6.4210 15.23540842  1232
2024-190C               
1 61619U 24190C   24304.50046029  .00008467  00000+0  34839-3 0  9992
2 61619  34.9997 338.0866 0007297 348.7357  11.3194 15.23384614  1100
CZ-2C R/B               
1 61620U 24190D   24305.47427673  .00591678  11528-3  11968-2 0  9998
2 61620  35.0089 327.8908 0173680 106.8786 255.1069 15.77031660  1263
STARLINK-32302          
1 61621U 24191A   24305.91668981 -.00865669  00000+0 -39189-2 0  9998
2 61621  43.0028  87.1211 0001806 288.7977  58.5928 15.85068938  2505
STARLINK-32364          
1 61622U 24191B   24305.91668981 -.00874926  00000+0 -39474-2 0  9992
2 61622  43.0024  87.1122 0001958 289.9106  60.9682 15.85159018  2445
STARLINK-32331          
1 61623U 24191C   24305.91668981 -.00868958  00000+0 -39268-2 0  9992
2 61623  43.0026  87.1172 0001809 289.8150  59.0655 15.85113225  2399
STARLINK-32398          
1 61624U 24191D   24305.91668981 -.00881462  00000+0 -39709-2 0  9998
2 61624  43.0026  87.1069 0001942 290.4992  62.4312 15.85205651  2455
STARLINK-32365          
1 61625U 24191E   24305.91668981 -.00886335  00000+0 -39862-2 0  9993
2 61625  43.0023  87.1021 0001994 290.4514  64.2990 15.85250894  2505
STARLINK-32333          
1 61626U 24191F   24305.91668981 -.00906286  00000+0 -40577-2 0  9997
2 61626  43.0026  87.0875 0001843 288.0495  72.5981 15.85391830  2440
STARLINK-32399          
1 61627U 24191G   24305.58334491 -.00936199  00000+0 -40876-2 0  9995
2 61627  43.0026  89.1520 0001332 276.4951 334.8976 15.85980442  2342
STARLINK-32421          
1 61628U 24191H   24305.91668981 -.00898437  00000+0 -40281-2 0  9999
2 61628  43.0024  87.0924 0001936 289.8366  68.7396 15.85343932  2452
STARLINK-32403          
1 61629U 24191J   24305.91668981 -.00913106  00000+0 -40820-2 0  9990
2 61629  43.0024  87.0819 0001826 290.5619  72.1345 15.85439490  2441
STARLINK-32390          
1 61630U 24191K   24305.58334491 -.00970619  00000+0 -42101-2 0  9997
2 61630  43.0025  89.1320 0001271 280.6820 338.5925 15.86196700  2349
STARLINK-32348          
1 61631U 24191L   24305.91668981 -.00926872  00000+0 -41302-2 0  9993
2 61631  43.0022  87.0720 0002109 283.9881  82.6048 15.85535186  2440
STARLINK-32455          
1 61632U 24191M   24305.91668981 -.00933289  00000+0 -41528-2 0  9994
2 61632  43.0022  87.0666 0001861 288.7119  80.0348 15.85582679  2456
STARLINK-32396          
1 61633U 24191N   24305.91668981 -.00940606  00000+0 -41786-2 0  9992
2 61633  43.0022  87.0612 0002014 289.4940  81.3654 15.85631462  2458
STARLINK-32355          
1 61634U 24191P   24305.91668981 -.00943212  00000+0 -41820-2 0  9998
2 61634  43.0020  87.0569 0002035 290.9078  81.5321 15.85677275  2444
STARLINK-32370          
1 61635U 24191Q   24305.91668981 -.00954602  00000+0 -42283-2 0  9998
2 61635  43.0020  87.0514 0001679 287.3781  87.1660 15.85728670  2443
STARLINK-32405          
1 61636U 24191R   24305.91668981 -.00962726  00000+0 -42573-2 0  9997
2 61636  43.0019  87.0458 0002002 289.5635  87.1894 15.85777965  2442
STARLINK-32419          
1 61637U 24191S   24305.91668981 -.00978780  00000+0 -43253-2 0  9991
2 61637  43.0021  87.0404 0001880 291.9950  86.9359 15.85831993  2453
STARLINK-32320          
1 61638U 24191T   24305.91668981 -.00986648  00000+0 -43535-2 0  9997
2 61638  43.0016  87.0362 0001999 290.1222  90.5216 15.85880188  2504
STARLINK-32341          
1 61639U 24191U   24305.91668981 -.01004213  00000+0 -44287-2 0  9993
2 61639  43.0018  87.0309 0001973 290.8284  91.9673 15.85933420  2448
STARLINK-32339          
1 61640U 24191V   24305.91668981 -.01031503  00000+0 -45413-2 0  9999
2 61640  43.0019  87.0206 0001964 292.0453  94.7320 15.86034185  2451
STARLINK-32327          
1 61641U 24191W   24305.91668981 -.01018211  00000+0 -44865-2 0  9991
2 61641  43.0018  87.0261 0002019 290.5957  94.1246 15.85984483  2440
STARLINK-32264          
1 61642U 24191X   24305.91668981 -.01054877  00000+0 -46362-2 0  9994
2 61642  43.0017  87.0103 0001676 289.0324 101.9957 15.86129416  2448
STARLINK-32337          
1 61643U 24191Y   24305.91668981 -.01045370  00000+0 -45993-2 0  9992
2 61643  43.0020  87.0156 0001777 288.8478  99.9950 15.86083554  2508
SHENZHOU-19 (SZ-19)     
1 61683U 24194A   24305.94684610  .00060153  00000+0  70749-3 0  9990
2 61683  41.4674 328.7164 0006807 313.5737  46.4536 15.60498261200274
2024-194B               
1 61684U 24194B   24304.16570017 -.00002234  70709-5  00000+0 0  9994
2 61684  41.3050 339.9579 0264171 116.1457 292.8724 15.65002779    52
2024-194C               
1 61685U 24194C   24304.42790892 -.00002334  73895-5  00000+0 0  9999
2 61685  41.5846 337.6433 0197112 136.4247 338.0813 15.80520491    82
2024-194D               
1 61686U 24194D   24304.41494671 -.00002403  76020-5  00000+0 0  9995
2 61686  41.4666 337.8603 0112305 129.0450 320.8564 16.01930102    44
COSMOS 2579             
1 61730U 24197A   24305.65884936 -.00000128  00000+0  00000+0 0  9993
2 61730  97.5620 213.9361 0117770  71.9112  18.7713 15.49529954    52
SL-4 R/B                
1 61731U 24197B   24305.96532207  .00086544  00000+0  11419-2 0  9993
2 61731  97.5645 214.2858 0114768  68.9626 292.3883 15.50561220    91
NOAA 1                  
1 04793U 70106A   24305.76241187  .00000000  00000+0  26825-3 0  9992
2 04793 101.4284 353.1344 0031791  70.2213  44.3534 12.54035118466306
NOAA 2 (ITOS-D)         
1 06235U 72082A   24305.45702825  .00000004  00000+0  32151-3 0  9990
2 06235 102.0225 306.0331 0003845 220.7530 307.9462 12.53189517380571
NOAA 3                  
1 06920U 73086A   24305.52860831 -.00000010  00000+0  27302-3 0  9996
2 06920 102.2856 302.7443 0006480 133.6465  18.9070 12.40373953308296
NOAA 4                  
1 07529U 74089A   24305.96124868 -.00000021  00000+0  15761-3 0  9995
2 07529 101.9980 301.5307 0008737 247.8801 138.8254 12.53186841285215
NOAA 5                  
1 09057U 76077A   24305.93703493 -.00000019  00000+0  20172-3 0  9995
2 09057 102.2281 279.2108 0009972 346.6527  32.1648 12.37808179181075
TIROS N                 
1 11060U 78096A   24305.72949683  .00000862  00000+0  43311-3 0  9990
2 11060  98.5175 340.9406 0010913 156.1163 204.0521 14.18989817594578
NOAA 6                  
1 11416U 79057A   24305.32079819  .00001538  00000+0  55747-3 0  9991
2 11416  98.6213 326.3602 0009349 212.4157 147.6455 14.34815665365776
NOAA 7                  
1 12553U 81059A   24305.77020588  .00000412  00000+0  22437-3 0  9997
2 12553  98.8771   5.1147 0011802 160.3463 199.8168 14.17610719240668
NOAA 8                  
1 13923U 83022A   24305.85890980  .00000916  00000+0  37610-3 0  9999
2 13923  98.7360 306.1263 0014592 189.7558 170.3342 14.29426122166295
